*******************************************************************************
Ephemeris / PORT_LOGIN Sun Nov 27 10:13:33 2011 Pasadena, USA    / Horizons    
*******************************************************************************
Target body name: Elara (507)                     {source: JUP282}
Center body name: Solar System Barycenter (0)     {source: DE405}
Center-site name: BODY CENTER
*******************************************************************************
Start time      : A.D. 2001-Jan-01 10:00:00.0000 CT 
Stop  time      : A.D. 2001-Jan-02 00:00:00.0000 CT 
Step-size       : 60 minutes
*******************************************************************************
Center geodetic : 0.00000000,0.00000000,0.0000000 {E-lon(deg),Lat(deg),Alt(km)}
Center cylindric: 0.00000000,0.00000000,0.0000000 {E-lon(deg),Dxy(km),Dz(km)}
Center radii    : (undefined)                                                  
Output units    : AU-D                                                         
Output format   : 03
Reference frame : ICRF/J2000.0                                                 
Output type     : GEOMETRIC cartesian states
Coordinate systm: Earth Mean Equator and Equinox of Reference Epoch            
*******************************************************************************
JDCT 
   X     Y     Z
   VX    VY    VZ
   LT    RG    RR
*******************************************************************************
$$SOE
2451910.916666667 = A.D. 2001-Jan-01 10:00:00.0000 (CT)
   1.853759385151954E+00  4.406817142581702E+00  1.797990809201610E+00
  -7.824803905423776E-03  4.042993314952959E-03  1.985340410928990E-03
   2.949997277210355E-02  5.107761949833250E+00  1.347175622238317E-03
2451910.958333333 = A.D. 2001-Jan-01 11:00:00.0000 (CT)
   1.853433327158037E+00  4.406985572524093E+00  1.798073535187290E+00
  -7.825979667620464E-03  4.041643829938353E-03  1.985506813560621E-03
   2.950029685918600E-02  5.107818063772098E+00  1.346293404293542E-03
2451911.000000000 = A.D. 2001-Jan-01 12:00:00.0000 (CT)
   1.853107220190899E+00  4.407153946226719E+00  1.798156268095397E+00
  -7.827154620058129E-03  4.040293806477897E-03  1.985672687469462E-03
   2.950062073393822E-02  5.107874140947107E+00  1.345410958234567E-03
2451911.041666667 = A.D. 2001-Jan-01 13:00:00.0000 (CT)
   1.852781064284277E+00  4.407322263667163E+00  1.798239007903905E+00
  -7.828328762874507E-03  4.038943245271610E-03  1.985838032870319E-03
   2.950094439630541E-02  5.107930181348787E+00  1.344528284449046E-03
2451911.083333333 = A.D. 2001-Jan-01 14:00:00.0000 (CT)
   1.852454859471902E+00  4.407490524823032E+00  1.798321754590799E+00
  -7.829502096207440E-03  4.037592147018241E-03  1.986002849977924E-03
   2.950126784623278E-02  5.107986184967654E+00  1.343645383323595E-03
2451911.125000000 = A.D. 2001-Jan-01 15:00:00.0000 (CT)
   1.852128605787501E+00  4.407658729671965E+00  1.798404508134069E+00
  -7.830674620194909E-03  4.036240512415279E-03  1.986167139006928E-03
   2.950159108366569E-02  5.108042151794245E+00  1.342762255243773E-03
2451911.166666667 = A.D. 2001-Jan-01 16:00:00.0000 (CT)
   1.851802303264792E+00  4.407826878191628E+00  1.798487268511718E+00
  -7.831846334975025E-03  4.034888342158966E-03  1.986330900171906E-03
   2.950191410854956E-02  5.108098081819111E+00  1.341878900594103E-03
2451911.208333333 = A.D. 2001-Jan-01 17:00:00.0000 (CT)
   1.851475951937490E+00  4.407994970359716E+00  1.798570035701755E+00
  -7.833017240686023E-03  4.033535636944315E-03  1.986494133687348E-03
   2.950223692082992E-02  5.108153975032820E+00  1.340995319758085E-03
2451911.250000000 = A.D. 2001-Jan-01 18:00:00.0000 (CT)
   1.851149551839303E+00  4.408163006153953E+00  1.798652809682200E+00
  -7.834187337466259E-03  4.032182397465108E-03  1.986656839767663E-03
   2.950255952045238E-02  5.108209831425955E+00  1.340111513118200E-03
2451911.291666667 = A.D. 2001-Jan-01 19:00:00.0000 (CT)
   1.850823103003934E+00  4.408330985552094E+00  1.798735590431080E+00
  -7.835356625454221E-03  4.030828624413932E-03  1.986819018627170E-03
   2.950288190736264E-02  5.108265650989115E+00  1.339227481055930E-03
2451911.333333333 = A.D. 2001-Jan-01 20:00:00.0000 (CT)
   1.850496605465080E+00  4.408498908531920E+00  1.798818377926432E+00
  -7.836525104788517E-03  4.029474318482178E-03  1.986980670480100E-03
   2.950320408150652E-02  5.108321433712916E+00  1.338343223951764E-03
2451911.375000000 = A.D. 2001-Jan-01 21:00:00.0000 (CT)
   1.850170059256431E+00  4.408666775071242E+00  1.798901172146303E+00
  -7.837692775607870E-03  4.028119480360060E-03  1.987141795540590E-03
   2.950352604282989E-02  5.108377179587991E+00  1.337458742185212E-03
2451911.416666667 = A.D. 2001-Jan-01 22:00:00.0000 (CT)
   1.849843464411673E+00  4.408834585147901E+00  1.798983973068747E+00
  -7.838859638051128E-03  4.026764110736630E-03  1.987302394022679E-03
   2.950384779127875E-02  5.108432888604985E+00  1.336574036134818E-03
2451911.458333333 = A.D. 2001-Jan-01 23:00:00.0000 (CT)
   1.849516820964486E+00  4.409002338739764E+00  1.799066780671828E+00
  -7.840025692257243E-03  4.025408210299798E-03  1.987462466140303E-03
   2.950416932679914E-02  5.108488560754560E+00  1.335689106178173E-03
2451911.500000000 = A.D. 2001-Jan-02 00:00:00.0000 (CT)
   1.849190128948542E+00  4.409170035824730E+00  1.799149594933618E+00
  -7.841190938365286E-03  4.024051779736337E-03  1.987622012107290E-03
   2.950449064933726E-02  5.108544196027395E+00  1.334803952691926E-03
$$EOE
*******************************************************************************
Coordinate system description:

  Earth Mean Equator and Equinox of Reference Epoch

    Reference epoch: J2000.0
    xy-plane: plane of the Earth's mean equator at the reference epoch
    x-axis  : out along ascending node of instantaneous plane of the Earth's
              orbit and the Earth's mean equator at the reference epoch
    z-axis  : along the Earth mean north pole at the reference epoch

Symbol meaning [1 AU=149597870.691 km, 1 day=86400.0 s]:

    JDCT     Epoch Julian Date, Coordinate Time
      X      x-component of position vector (AU)                               
      Y      y-component of position vector (AU)                               
      Z      z-component of position vector (AU)                               
      VX     x-component of velocity vector (AU/day)                           
      VY     y-component of velocity vector (AU/day)                           
      VZ     z-component of velocity vector (AU/day)                           
      LT     One-way down-leg Newtonian light-time (day)                       
      RG     Range; distance from coordinate center (AU)                       
      RR     Range-rate; radial velocity wrt coord. center (AU/day)            

Geometric states/elements have no aberration corrections applied.

 Computations by ...
     Solar System Dynamics Group, Horizons On-Line Ephemeris System
     4800 Oak Grove Drive, Jet Propulsion Laboratory
     Pasadena, CA  91109   USA
     Information: http://ssd.jpl.nasa.gov/
     Connect    : telnet://ssd.jpl.nasa.gov:6775  (via browser)
                  telnet ssd.jpl.nasa.gov 6775    (via command-line)
     Author     : Jon.Giorgini@jpl.nasa.gov
*******************************************************************************
